NORAD_CAT_ID,OBJECT_NAME,OBJECT_TYPE,EPOCH,MEAN_MOTION,ECCENTRICITY,INCLINATION,RA_OF_ASC_NODE,ARG_OF_PERICENTER,MEAN_ANOMALY,BSTAR,MEAN_MOTION_DOT,MEAN_MOTION_DDOT,TLE_LINE0,TLE_LINE1,TLE_LINE2,SEMIMAJOR_AXIS,PERIOD,APOGEE,PERIGEE,DECAYED
49756.0,STARLINK-3207,PAYLOAD,2022-02-14 14:00:01,15.40412224,0.0003208999999999,53.219,330.3482,14.8491,298.389,0.0010181,0.00041628,0.0,0 STARLINK-3207,1 49756U 21115AJ  22045.58334491  .00041628  00000-0  10181-2 0  9995,2 49756  53.2190 330.3482 0003209  14.8491 298.3890 15.40412224  3644,6823.029,93.481,447.083,442.704,0.0
49756.0,STARLINK-3207,PAYLOAD,2022-02-14 20:00:01,15.40437753,0.000324,53.2192,329.1704,17.9636,242.4092,-0.00017824,-7.722e-05,0.0,0 STARLINK-3207,1 49756U 21115AJ  22045.83334491 -.00007722  00000-0 -17824-3 0  9994,2 49756  53.2192 329.1704 0003240  17.9636 242.4092 15.40437753 12647,6822.953,93.48,447.029,442.608,0.0
49756.0,STARLINK-3207,PAYLOAD,2022-02-15 14:00:01,15.40422853,0.0003312,53.2192,325.6371,15.674,86.2234,0.00087987,0.00035907,0.0,0 STARLINK-3207,1 49756U 21115AJ  22046.58334491  .00035907  00000-0  87987-3 0  9998,2 49756  53.2192 325.6371 0003312  15.6740  86.2234 15.40422853  3613,6822.996999999999,93.481,447.122,442.603,0.0
49756.0,STARLINK-3207,PAYLOAD,2022-02-15 22:00:01,15.40477209,0.0003369,53.2192,324.0675,16.5317,134.9812,-0.00055169,-0.00023039,0.0,0 STARLINK-3207,1 49756U 21115AJ  22046.91668981 -.00023039  00000-0 -55169-3 0  9991,2 49756  53.2192 324.0675 0003369  16.5317 134.9812 15.40477209 12815,6822.837,93.478,447.001,442.403,0.0
49756.0,STARLINK-3207,PAYLOAD,2022-02-16 14:00:01,15.40441276,0.0003315,53.2186,320.9259,14.5744,236.0707,0.0016771,0.00069152,0.0,0 STARLINK-3207,1 49756U 21115AJ  22047.58334491  .00069152  00000-0  16771-2 0  9990,2 49756  53.2186 320.9259 0003315  14.5744 236.0707 15.40441276 12917,6822.943,93.48,447.07,442.546,0.0
49756.0,STARLINK-3207,PAYLOAD,2022-02-16 22:00:00,15.40492888,0.000344,53.2185,319.3566,16.5952,283.6476,9.9462e-06,5e-08,0.0,0 STARLINK-3207,1 49756U 21115AJ  22047.91667824  .00000005  00000-0  99462-5 0  9999,2 49756  53.2185 319.3566 0003440  16.5952 283.6476 15.40492888  3614,6822.791,93.477,447.003,442.309,0.0
49756.0,STARLINK-3207,PAYLOAD,2022-02-17 06:00:00,15.40510346,0.0003572,53.2177,317.7869,14.3601,335.5122,3.6649e-05,1.105e-05,0.0,0 STARLINK-3207,1 49756U 21115AJ  22048.25001157  .00001105  00000-0  36649-4 0  9997,2 49756  53.2177 317.7869 0003572  14.3601 335.5122 15.40510346 13027,6822.739000000001,93.476,447.041,442.167,0.0
49756.0,STARLINK-3207,PAYLOAD,2022-02-17 14:00:01,15.40471967,0.0003256999999999,53.2177,316.2145,13.8059,25.724,0.00067091,0.00027297,0.0,0 STARLINK-3207,1 49756U 21115AJ  22048.58334491  .00027297  00000-0  67091-3 0  9997,2 49756  53.2177 316.2145 0003257  13.8059  25.7240 15.40471967  3617,6822.852,93.478,446.94,442.495,0.0
49756.0,STARLINK-3207,PAYLOAD,2022-02-17 22:00:00,15.40506345,0.0003331,53.2176,314.6452,13.6271,75.5142,-0.0011807,-0.00048731,0.0,0 STARLINK-3207,1 49756U 21115AJ  22048.91667824 -.00048731  00000-0 -11807-2 0  9994,2 49756  53.2176 314.6452 0003331  13.6271  75.5142 15.40506345 13126,6822.751,93.476,446.889,442.343,0.0
49756.0,STARLINK-3207,PAYLOAD,2022-02-18 14:00:01,15.40395978,0.0003241,53.217,311.5029,13.4668,174.875,0.00085513,0.0003485,0.0,0 STARLINK-3207,1 49756U 21115AJ  22049.58334491  .00034850  00000-0  85513-3 0  9990,2 49756  53.2170 311.5029 0003241  13.4668 174.8750 15.40395978  3657,6823.0769999999975,93.482,447.153,442.73,0.0
49756.0,STARLINK-3207,PAYLOAD,2022-02-18 22:00:00,15.4042539,0.0003392,53.2172,309.9338,15.804,222.0577,0.0003899,0.00015645,0.0,0 STARLINK-3207,1 49756U 21115AJ  22049.91667824  .00015645  00000-0  38990-3 0  9994,2 49756  53.2172 309.9338 0003392  15.8040 222.0577 15.40425390  3633,6822.99,93.481,447.169,442.541,0.0
49756.0,STARLINK-3207,PAYLOAD,2022-02-19 06:00:00,15.40462331,0.0003523999999999,53.2169,308.3638,14.0693,273.3493,0.00022192,8.733e-05,0.0,0 STARLINK-3207,1 49756U 21115AJ  22050.25001157  .00008733  00000-0  22192-3 0  9991,2 49756  53.2169 308.3638 0003524  14.0693 273.3493 15.40462331 13337,6822.880999999999,93.478,447.15,442.341,0.0
49756.0,STARLINK-3207,PAYLOAD,2022-02-19 14:00:01,15.40430898,0.0003286,53.2171,306.7913,15.1206,321.9052,0.0022516,0.00093241,0.0,0 STARLINK-3207,1 49756U 21115AJ  22050.58334491  .00093241  00000-0  22516-2 0  9994,2 49756  53.2171 306.7913 0003286  15.1206 321.9052 15.40430898  3619,6822.974,93.48,447.081,442.597,0.0
49756.0,STARLINK-3207,PAYLOAD,2022-02-19 22:00:00,15.4051786,0.0003421,53.2173,305.2221,14.1586,12.4586,-0.0013433,-0.00055361,0.0,0 STARLINK-3207,1 49756U 21115AJ  22050.91667824 -.00055361  00000-0 -13433-2 0  9991,2 49756  53.2173 305.2221 0003421  14.1586  12.4586 15.40517860  3628,6822.717,93.475,446.916,442.24800000000016,0.0
49756.0,STARLINK-3207,PAYLOAD,2022-02-20 14:00:01,15.40436972,0.0003276,53.2174,302.0792,9.2382,116.6362,0.001564,0.00064412,0.0,0 STARLINK-3207,1 49756U 21115AJ  22051.58334491  .00064412  00000-0  15640-2 0  9993,2 49756  53.2174 302.0792 0003276   9.2382 116.6362 15.40436972 13538,6822.956,93.48,447.056,442.586,0.0
49756.0,STARLINK-3207,PAYLOAD,2022-02-20 22:00:00,15.40489171,0.0003471,53.2175,300.5101,8.8199,166.6375,-0.0015807,-0.00064932,0.0,0 STARLINK-3207,1 49756U 21115AJ  22051.91667824 -.00064932  00000-0 -15807-2 0  9993,2 49756  53.2175 300.5101 0003471   8.8199 166.6375 15.40489171 13587,6822.802,93.477,447.035,442.298,0.0
49756.0,STARLINK-3207,PAYLOAD,2022-02-21 14:00:01,15.40394107,0.0003438,53.2174,297.3672,11.5789,263.0448,0.0013418,0.00055058,0.0,0 STARLINK-3207,1 49756U 21115AJ  22052.58334491  .00055058  00000-0  13418-2 0  9991,2 49756  53.2174 297.3672 0003438  11.5789 263.0448 15.40394107 13689,6823.081999999999,93.483,447.293,442.602,0.0
49756.0,STARLINK-3207,PAYLOAD,2022-02-21 22:00:00,15.4043329,0.0003662,53.2173,295.7984,13.1066,311.0489,0.00026543,0.00010517,0.0,0 STARLINK-3207,1 49756U 21115AJ  22052.91667824  .00010517  00000-0  26543-3 0  9992,2 49756  53.2173 295.7984 0003662  13.1066 311.0489 15.40433290  3619,6822.967,93.48,447.33,442.333,0.0
49756.0,STARLINK-3207,PAYLOAD,2022-02-22 04:00:00,15.40432214,0.0003743,53.217,294.621,12.0475,259.2775,0.0013919,0.00057219,0.0,0 STARLINK-3207,1 49756U 21115AJ  22053.16667824  .00057219  00000-0  13919-2 0  9992,2 49756  53.2170 294.6210 0003743  12.0475 259.2775 15.40432214 13772,6822.97,93.48,447.389,442.281,0.0
49756.0,STARLINK-3207,PAYLOAD,2022-02-22 14:00:01,15.40477784,0.0003457,53.2169,292.6555,14.2187,49.1685,0.00055991,0.00022705,0.0,0 STARLINK-3207,1 49756U 21115AJ  22053.58334491  .00022705  00000-0  55991-3 0  9998,2 49756  53.2169 292.6555 0003457  14.2187  49.1685 15.40477784 13841,6822.835,93.477,447.059,442.342,0.0
49756.0,STARLINK-3207,PAYLOAD,2022-02-22 22:00:00,15.40504399,0.0003641,53.2168,291.0867,12.4079,100.608,-0.0011069,-0.00045728,0.0,0 STARLINK-3207,1 49756U 21115AJ  22053.91667824 -.00045728  00000-0 -11069-2 0  9993,2 49756  53.2168 291.0867 0003641  12.4079 100.6080 15.40504399  3646,6822.757,93.476,447.106,442.137,0.0
49756.0,STARLINK-3207,PAYLOAD,2022-02-23 06:00:00,15.40483061,0.0003644,53.2164,289.5157,10.2516,152.3677,-0.0012427,-0.00051216,0.0,0 STARLINK-3207,1 49756U 21115AJ  22054.25001157 -.00051216  00000-0 -12427-2 0  9990,2 49756  53.2164 289.5157 0003644  10.2516 152.3677 15.40483061 13943,6822.82,93.477,447.171,442.198,0.0
49756.0,STARLINK-3207,PAYLOAD,2022-02-23 14:00:01,15.40432378,0.0003391,53.2165,287.9437,10.661,201.5473,6.305300000000001e-05,2.187e-05,0.0,0 STARLINK-3207,1 49756U 21115AJ  22054.58334491  .00002187  00000-0  63053-4 0  9990,2 49756  53.2165 287.9437 0003391  10.6610 201.5473 15.40432378  3647,6822.969,93.48,447.148,442.521,0.0
49756.0,STARLINK-3207,PAYLOAD,2022-02-23 22:00:00,15.40416468,0.0003651,53.2166,286.3751,10.81,250.952,-0.00044593,-0.00018675,0.0,0 STARLINK-3207,1 49756U 21115AJ  22054.91667824 -.00018675  00000-0 -44593-3 0  9994,2 49756  53.2166 286.3751 0003651  10.8100 250.9520 15.40416468  3648,6823.016,93.481,447.372,442.39,0.0
49756.0,STARLINK-3207,PAYLOAD,2022-02-24 06:00:00,15.40429149,0.0003645,53.2164,284.8041,9.8791,301.4037,-0.00017992,-7.79e-05,0.0,0 STARLINK-3207,1 49756U 21115AJ  22055.25001157 -.00007790  00000-0 -17992-3 0  9992,2 49756  53.2164 284.8041 0003645   9.8791 301.4037 15.40429149 14106,6822.979,93.48,447.331,442.357,0.0
49756.0,STARLINK-3207,PAYLOAD,2022-02-24 14:00:01,15.40421451,0.0003439,53.2166,283.2323,11.8457,348.9933,0.0016319,0.00067217,0.0,0 STARLINK-3207,1 49756U 21115AJ  22055.58334491  .00067217  00000-0  16319-2 0  9997,2 49756  53.2166 283.2323 0003439  11.8457 348.9933 15.40421451  3643,6823.002,93.481,447.213,442.52,0.0
49756.0,STARLINK-3207,PAYLOAD,2022-02-24 22:00:00,15.40478109,0.0003689,53.2168,281.6635,10.8291,39.6626,-0.00053548,-0.00022378,0.0,0 STARLINK-3207,1 49756U 21115AJ  22055.91667824 -.00022378  00000-0 -53548-3 0  9990,2 49756  53.2168 281.6635 0003689  10.8291  39.6626 15.40478109  3617,6822.834,93.477,447.216,442.182,0.0
49756.0,STARLINK-3207,PAYLOAD,2022-02-25 06:00:00,15.40487262,0.0003668,53.2168,280.0924,8.8658,91.2236,-0.0015489,-0.00063643,0.0,0 STARLINK-3207,1 49756U 21115AJ  22056.25001157 -.00063643  00000-0 -15489-2 0  9990,2 49756  53.2168 280.0924 0003668   8.8658  91.2236 15.40487262 14255,6822.807,93.477,447.175,442.17,0.0
49756.0,STARLINK-3207,PAYLOAD,2022-02-25 14:00:01,15.40434784,0.0003481,53.2171,278.5205,9.4361,140.2374,0.0007428,0.0003024,0.0,0 STARLINK-3207,1 49756U 21115AJ  22056.58334491  .00030240  00000-0  74280-3 0  9996,2 49756  53.2171 278.5205 0003481   9.4361 140.2374 15.40434784  3633,6822.962,93.48,447.202,442.452,0.0
49756.0,STARLINK-3207,PAYLOAD,2022-02-25 22:00:00,15.40435887,0.000378,53.2172,276.952,8.5387,190.7155,0.00011753,4.428e-05,0.0,0 STARLINK-3207,1 49756U 21115AJ  22056.91667824  .00004428  00000-0  11753-3 0  9997,2 49756  53.2172 276.9520 0003780   8.5387 190.7155 15.40435887 14359,6822.959,93.48,447.403,442.245,0.0
